NORAD_CAT_ID,OBJECT_NAME,OBJECT_TYPE,EPOCH,MEAN_MOTION,ECCENTRICITY,INCLINATION,RA_OF_ASC_NODE,ARG_OF_PERICENTER,MEAN_ANOMALY,BSTAR,MEAN_MOTION_DOT,MEAN_MOTION_DDOT,TLE_LINE0,TLE_LINE1,TLE_LINE2,SEMIMAJOR_AXIS,PERIOD,APOGEE,PERIGEE,DECAYED
52115.0,STARLINK-3685,PAYLOAD,2022-09-15 06:00:00,15.08818856,0.0001469,53.2206,26.8283,65.1093,268.4293,0.0038595,0.00061637,0.0,0 STARLINK-3685,1 52115U 22029AD  22258.25001157  .00061637  00000-0  38595-2 0  9994,2 52115  53.2206  26.8283 0001469  65.1093 268.4293 15.08818856 28832,6917.945,95.439,540.826,538.794,0.0
52115.0,STARLINK-3685,PAYLOAD,2022-09-15 14:00:01,15.08868429,0.0001525,53.2206,25.3335,58.8741,286.2605,-0.0033293,-0.00052926,0.0,0 STARLINK-3685,1 52115U 22029AD  22258.58334491 -.00052926  00000-0 -33293-2 0  9993,2 52115  53.2206  25.3335 0001525  58.8741 286.2605 15.08868429  1305,6917.793000000002,95.436,540.7130000000002,538.604,0.0
52115.0,STARLINK-3685,PAYLOAD,2022-09-15 18:50:07,15.08847139,0.0001564,53.2213,24.4286,66.2219,293.8937,0.00019754,2.858e-05,0.0,0 STARLINK-3685,1 52115U 22029AD  22258.78481298  .00002858  00000-0  19754-3 0  9997,2 52115  53.2213  24.4286 0001564  66.2219 293.8937 15.08847139 28928,6917.859,95.437,540.806,538.6419999999998,0.0
52115.0,STARLINK-3685,PAYLOAD,2022-09-16 01:11:41,15.08832715,0.0001826,53.2206,23.2387,62.6277,297.49,0.00025034,3.698e-05,0.0,0 STARLINK-3685,1 52115U 22029AD  22259.04978430  .00003698  00000-0  25034-3 0  9997,2 52115  53.2206  23.2387 0001826  62.6277 297.4900 15.08832715 28962,6917.903,95.438,541.031,538.504,0.0
52115.0,STARLINK-3685,PAYLOAD,2022-09-16 09:08:36,15.08840237,0.0001705,53.2204,21.7511,63.5175,296.5992,0.00031556,4.738e-05,0.0,0 STARLINK-3685,1 52115U 22029AD  22259.38098134  .00004738  00000-0  31556-3 0  9990,2 52115  53.2204  21.7511 0001705  63.5175 296.5992 15.08840237 29011,6917.88,95.438,540.924,538.565,0.0
52115.0,STARLINK-3685,PAYLOAD,2022-09-17 12:10:11,15.08830896,0.0001309,53.2218,16.6975,56.1141,303.9976,-4.4503e-05,-9.96e-06,0.0,0 STARLINK-3685,1 52115U 22029AD  22260.50707804 -.00000996  00000-0 -44503-4 0  9998,2 52115  53.2218  16.6975 0001309  56.1141 303.9976 15.08830896 29187,6917.908,95.438,540.679,538.868,0.0
52115.0,STARLINK-3685,PAYLOAD,2022-09-17 16:56:20,15.08832435,0.0001516,53.2216,15.8048,61.8357,298.2788,-4.1281000000000014e-05,-9.45e-06,0.0,0 STARLINK-3685,1 52115U 22029AD  22260.70579801 -.00000945  00000-0 -41281-4 0  9998,2 52115  53.2216  15.8048 0001516  61.8357 298.2788 15.08832435 29211,6917.904,95.438,540.817,538.72,0.0
52115.0,STARLINK-3685,PAYLOAD,2022-09-18 12:00:57,15.08842136,0.0001369,53.2215,12.237,55.0015,305.1106,0.00012426,1.6899999999999994e-05,0.0,0 STARLINK-3685,1 52115U 22029AD  22261.50066923  .00001690  00000-0  12426-3 0  9997,2 52115  53.2215  12.2370 0001369  55.0015 305.1106 15.08842136 29335,6917.874,95.437,540.686,538.7919999999998,0.0
52115.0,STARLINK-3685,PAYLOAD,2022-09-18 13:36:20,15.0884274,0.0001320999999999,53.2213,11.9395,55.8569,304.2549,0.00012998,1.781e-05,0.0,0 STARLINK-3685,1 52115U 22029AD  22261.56690863  .00001781  00000-0  12998-3 0  9994,2 52115  53.2213  11.9395 0001321  55.8569 304.2549 15.08842740 29349,6917.871999999999,95.437,540.651,538.823,0.0
52115.0,STARLINK-3685,PAYLOAD,2022-09-18 16:47:07,15.08842057,0.0001479,53.2213,11.3457,55.8417,304.2715,0.00022765,3.337e-05,0.0,0 STARLINK-3685,1 52115U 22029AD  22261.69938780  .00003337  00000-0  22765-3 0  9993,2 52115  53.2213  11.3457 0001479  55.8417 304.2715 15.08842057 29366,6917.874,95.437,540.762,538.716,0.0
52115.0,STARLINK-3685,PAYLOAD,2022-09-19 13:27:07,15.0884739,0.0001483,53.2215,7.48,57.2955,302.818,0.00022597,3.311e-05,0.0,0 STARLINK-3685,1 52115U 22029AD  22262.56050392  .00003311  00000-0  22597-3 0  9999,2 52115  53.2215   7.4800 0001483  57.2955 302.8180 15.08847390 29493,6917.858,95.437,540.749,538.697,0.0
52115.0,STARLINK-3685,PAYLOAD,2022-09-19 15:02:30,15.08850703,0.0001527,53.2216,7.1829,57.76600000000001,302.348,0.00026096,3.869e-05,0.0,0 STARLINK-3685,1 52115U 22029AD  22262.62674179  .00003869  00000-0  26096-3 0  9997,2 52115  53.2216   7.1829 0001527  57.7660 302.3480 15.08850703 29501,6917.848000000001,95.437,540.769,538.656,0.0
52115.0,STARLINK-3685,PAYLOAD,2022-09-20 13:17:54,15.08848433,0.0001579,53.221,3.0203,57.942,302.1726,4.0054e-05,3.5000000000000016e-06,0.0,0 STARLINK-3685,1 52115U 22029AD  22263.55410353  .00000350  00000-0  40054-4 0  9995,2 52115  53.2210   3.0203 0001579  57.9420 302.1726 15.08848433 29642,6917.855,95.437,540.812,538.627,0.0
52115.0,STARLINK-3685,PAYLOAD,2022-09-20 14:53:17,15.08846343,0.0001579,53.2217,2.7230000000000003,59.2445,300.8702,4.9997e-05,5.08e-06,0.0,0 STARLINK-3685,1 52115U 22029AD  22263.62034401  .00000508  00000-0  49997-4 0  9999,2 52115  53.2217   2.7230 0001579  59.2445 300.8702 15.08846343 29655,6917.861,95.437,540.818,538.634,0.0
52115.0,STARLINK-3685,PAYLOAD,2022-09-21 11:33:18,15.08843796,0.0001699,53.2215,358.8577,61.7993,298.317,-4.4435e-05,-9.95e-06,0.0,0 STARLINK-3685,1 52115U 22029AD  22264.48146374 -.00000995  00000-0 -44435-4 0  9991,2 52115  53.2215 358.8577 0001699  61.7993 298.3170 15.08843796 29784,6917.869000000002,95.437,540.909,538.558,0.0
52115.0,STARLINK-3685,PAYLOAD,2022-09-22 12:59:28,15.08838006,0.0001738,53.2216,354.1004,60.7821,299.3344,5.249600000000002e-05,5.47e-06,0.0,0 STARLINK-3685,1 52115U 22029AD  22265.54130368  .00000547  00000-0  52496-4 0  9992,2 52115  53.2216 354.1004 0001738  60.7821 299.3344 15.08838006 29942,6917.886,95.438,540.9540000000002,538.549,0.0
52115.0,STARLINK-3685,PAYLOAD,2022-09-23 12:50:15,15.08838803,0.0001496,53.2211,349.6416,56.0569,304.0565,5.1902e-05,5.38e-06,0.0,0 STARLINK-3685,1 52115U 22029AD  22266.53490613  .00000538  00000-0  51902-4 0  9995,2 52115  53.2211 349.6416 0001496  56.0569 304.0565 15.08838803 30093,6917.884,95.438,540.784,538.714,0.0
52115.0,STARLINK-3685,PAYLOAD,2022-09-23 14:25:38,15.08841211,0.0001539,53.2209,349.3433,52.7908,307.3225,6.6067e-05,7.64e-06,0.0,0 STARLINK-3685,1 52115U 22029AD  22266.60114428  .00000764  00000-0  66067-4 0  9999,2 52115  53.2209 349.3433 0001539  52.7908 307.3225 15.08841211 30102,6917.877,95.437,540.806,538.677,0.0
52115.0,STARLINK-3685,PAYLOAD,2022-09-23 22:22:33,15.08848908,0.0001561999999999,53.2209,347.8565,52.3359,307.7775,0.00013389,1.844e-05,0.0,0 STARLINK-3685,1 52115U 22029AD  22266.93233687  .00001844  00000-0  13389-3 0  9992,2 52115  53.2209 347.8565 0001562  52.3359 307.7775 15.08848908 30152,6917.853,95.437,540.799,538.638,0.0
52115.0,STARLINK-3685,PAYLOAD,2022-09-24 11:05:39,15.08838768,0.0001745,53.2227,345.4797,62.5806,297.5364,8.8669e-05,1.123e-05,0.0,0 STARLINK-3685,1 52115U 22029AD  22267.46226532  .00001123  00000-0  88669-4 0  9996,2 52115  53.2227 345.4797 0001745  62.5806 297.5364 15.08838768 30238,6917.884,95.438,540.956,538.5419999999998,0.0
52115.0,STARLINK-3685,PAYLOAD,2022-09-24 12:41:02,15.08840407,0.0001721999999999,53.2214,345.1805,53.6624,306.4527,0.00012786,1.747e-05,0.0,0 STARLINK-3685,1 52115U 22029AD  22267.52850312  .00001747  00000-0  12786-3 0  9990,2 52115  53.2214 345.1805 0001722  53.6624 306.4527 15.08840407 30240,6917.879,95.438,540.935,538.553,0.0
52115.0,STARLINK-3685,PAYLOAD,2022-09-25 10:56:26,15.08842001,0.0001588,53.2213,341.0172,55.5078,304.6064,-1.585e-05,-5.400000000000002e-06,0.0,0 STARLINK-3685,1 52115U 22029AD  22268.45586601 -.00000540  00000-0 -15850-4 0  9998,2 52115  53.2213 341.0172 0001588  55.5078 304.6064 15.08842001 30388,6917.874,95.437,540.8380000000002,538.641,0.0
52115.0,STARLINK-3685,PAYLOAD,2022-09-25 22:04:09,15.08836503,0.0001776999999999,53.2216,338.9363,53.5186,306.597,-5.2837e-05,-1.129e-05,0.0,0 STARLINK-3685,1 52115U 22029AD  22268.91955125 -.00001129  00000-0 -52837-4 0  9990,2 52115  53.2216 338.9363 0001777  53.5186 306.5970 15.08836503 30451,6917.891,95.438,540.985,538.5269999999998,0.0
52115.0,STARLINK-3685,PAYLOAD,2022-09-26 10:47:14,15.08830182,0.0001892,53.2224,336.5575,58.1068,302.0108,-2.5906e-05,-7.000000000000003e-06,0.0,0 STARLINK-3685,1 52115U 22029AD  22269.44947671 -.00000700  00000-0 -25906-4 0  9997,2 52115  53.2224 336.5575 0001892  58.1068 302.0108 15.08830182 30537,6917.91,95.438,541.0840000000002,538.467,0.0
52115.0,STARLINK-3685,PAYLOAD,2022-09-27 10:38:01,15.08839707,0.0001692,53.2212,332.0962,57.8703,302.2454,0.00013551,1.869e-05,0.0,0 STARLINK-3685,1 52115U 22029AD  22270.44306862  .00001869  00000-0  13551-3 0  9997,2 52115  53.2212 332.0962 0001692  57.8703 302.2454 15.08839707 30689,6917.880999999999,95.438,540.9169999999998,538.576,0.0
52115.0,STARLINK-3685,PAYLOAD,2022-09-28 10:28:47,15.08846785,0.0001708,53.221,327.6368,53.7819,306.3331,0.00020634,2.998e-05,0.0,0 STARLINK-3685,1 52115U 22029AD  22271.43666291  .00002998  00000-0  20634-3 0  9996,2 52115  53.2210 327.6368 0001708  53.7819 306.3331 15.08846785 30838,6917.86,95.437,540.906,538.543,0.0
52115.0,STARLINK-3685,PAYLOAD,2022-09-29 10:19:37,15.08820175,0.0001685,53.2202,323.1768,50.0946,310.0194,-0.00012502,-2.276e-05,0.0,0 STARLINK-3685,1 52115U 22029AD  22272.43029066 -.00002276  00000-0 -12502-3 0  9996,2 52115  53.2202 323.1768 0001685  50.0946 310.0194 15.08820175 30989,6917.941,95.439,540.972,538.64,0.0
52115.0,STARLINK-3685,PAYLOAD,2022-09-30 03:48:51,15.08829073,0.0001685,53.2204,319.9059,48.353,311.7607,-0.00010343,-1.933e-05,0.0,0 STARLINK-3685,1 52115U 22029AD  22273.15893059 -.00001933  00000-0 -10343-3 0  9997,2 52115  53.2204 319.9059 0001685  48.3530 311.7607 15.08829073 31092,6917.9140000000025,95.438,540.944,538.613,0.0
52115.0,STARLINK-3685,PAYLOAD,2022-09-30 10:10:23,15.08836673,0.0001696,53.2208,318.7176,46.9389,313.1745,-4.0363e-05,-9.3e-06,0.0,0 STARLINK-3685,1 52115U 22029AD  22273.42388592 -.00000930  00000-0 -40363-4 0  9990,2 52115  53.2208 318.7176 0001696  46.9389 313.1745 15.08836673 31139,6917.891,95.438,540.929,538.582,0.0
